{"type": "FeatureCollection", "features": [ {"type": "Feature", "properties": {"norad_id": 35484, "name": "IRIDIUM 33 DEB", "group": "iridium-33-debris", "lat": 66.70628839575791, "lon": 157.6597947720915, "alt_km": 547.8751014597256, "timestamp": "2025-12-26T19:22:39.294006+00:00", "meta": {"OBJECT_NAME": "IRIDIUM 33 DEB", "OBJECT_ID": "1997-051QE", "EPOCH": "2025-12-23T05:59:10.354560", "MEAN_MOTION": 14.99264182, "ECCENTRICITY": 0.00245796, "INCLINATION": 86.3609, "RA_OF_ASC_NODE": 347.8264, "ARG_OF_PERICENTER": 91.5392, "MEAN_ANOMALY": 268.8655, "EPHEMERIS_TYPE": 0, "CLASSIFICATION_TYPE": "U", "NORAD_CAT_ID": 35484, "ELEMENT_SET_NO": 999, "REV_AT_EPOCH": 62173, "BSTAR": 0.0029536278, "MEAN_MOTION_DOT": 0.00036413, "MEAN_MOTION_DDOT": 0}, "tle": {"line1": "1 35484U 97051QE  25357.24942540  .00036413  00000+0  29536-2 0  9991", "line2": "2 35484  86.3609 347.8264 0024579  91.5392 268.8655 14.99264182621733"}}, "geometry": {"type": "Point", "coordinates": [157.6597947720915, 66.70628839575791]}}, {"type": "Feature", "properties": {"norad_id": 35488, "name": "IRIDIUM 33 DEB", "group": "iridium-33-debris", "lat": 38.2736561044536, "lon": 111.4846155603726, "alt_km": 632.0228088273798, "timestamp": "2025-12-26T19:22:39.294016+00:00", "meta": {"OBJECT_NAME": "IRIDIUM 33 DEB", "OBJECT_ID": "1997-051QJ", "EPOCH": "2025-12-24T19:47:30.471936", "MEAN_MOTION": 14.83358408, "ECCENTRICITY": 0.00280046, "INCLINATION": 86.3249, "RA_OF_ASC_NODE": 295.3058, "ARG_OF_PERICENTER": 2.7873, "MEAN_ANOMALY": 357.3501, "EPHEMERIS_TYPE": 0, "CLASSIFICATION_TYPE": "U", "NORAD_CAT_ID": 35488, "ELEMENT_SET_NO": 999, "REV_AT_EPOCH": 88445, "BSTAR": 0.0017384526, "MEAN_MOTION_DOT": 0.00014384, "MEAN_MOTION_DDOT": 0}, "tle": {"line1": "1 35488U 97051QJ  25358.82465824  .00014384  00000+0  17385-2 0  9997", "line2": "2 35488  86.3249 295.3058 0028004   2.7873 357.3501 14.83358408884452"}}, "geometry": {"type": "Point", "coordinates": [111.4846155603726, 38.2736561044536]}}, {"type": "Feature", "properties": {"norad_id": 35616, "name": "IRIDIUM 33 DEB", "group": "iridium-33-debris", "lat": -57.14647639204418, "lon": 165.0083845464204, "alt_km": 633.9381220503401, "timestamp": "2025-12-26T19:22:39.294027+00:00", "meta": {"OBJECT_NAME": "IRIDIUM 33 DEB", "OBJECT_ID": "1997-051QN", "EPOCH": "2025-12-21T16:46:45.287328", "MEAN_MOTION": 14.82015021, "ECCENTRICITY": 0.00114093, "INCLINATION": 86.3545, "RA_OF_ASC_NODE": 341.6744, "ARG_OF_PERICENTER": 134.0095, "MEAN_ANOMALY": 226.2069, "EPHEMERIS_TYPE": 0, "CLASSIFICATION_TYPE": "U", "NORAD_CAT_ID": 35616, "ELEMENT_SET_NO": 999, "REV_AT_EPOCH": 87707, "BSTAR": 0.0013754653, "MEAN_MOTION_DOT": 0.00010957, "MEAN_MOTION_DDOT": 0}, "tle": {"line1": "1 35616U 97051QN  25355.69913527  .00010957  00000+0  13755-2 0  9999", "line2": "2 35616  86.3545 341.6744 0011409 134.0095 226.2069 14.82015021877070"}}, "geometry": {"type": "Point", "coordinates": [165.0083845464204, -57.14647639204418]}}, {"type": "Feature", "properties": {"norad_id": 35618, "name": "IRIDIUM 33 DEB", "group": "iridium-33-debris", "lat": -56.51441286922107, "lon": -18.19364972784488, "alt_km": 708.103992794262, "timestamp": "2025-12-26T19:22:39.294037+00:00", "meta": {"OBJECT_NAME": "IRIDIUM 33 DEB", "OBJECT_ID": "1997-051QQ", "EPOCH": "2025-12-26T06:24:30.352608", "MEAN_MOTION": 14.52352312, "ECCENTRICITY": 0.00279532, "INCLINATION": 86.3436, "RA_OF_ASC_NODE": 347.5894, "ARG_OF_PERICENTER": 336.1587, "MEAN_ANOMALY": 23.8322, "EPHEMERIS_TYPE": 0, "CLASSIFICATION_TYPE": "U", "NORAD_CAT_ID": 35618, "ELEMENT_SET_NO": 999, "REV_AT_EPOCH": 65590, "BSTAR": 0.00055338246, "MEAN_MOTION_DOT": 2.283e-05, "MEAN_MOTION_DDOT": 0}, "tle": {"line1": "1 35618U 97051QQ  25360.26701797  .00002283  00000+0  55338-3 0  9991", "line2": "2 35618  86.3436 347.5894 0027953 336.1587  23.8322 14.52352312655907"}}, "geometry": {"type": "Point", "coordinates": [-18.19364972784488, -56.51441286922107]}}, {"type": "Feature", "properties": {"norad_id": 35620, "name": "IRIDIUM 33 DEB", "group": "iridium-33-debris", "lat": -63.00586424514558, "lon": -155.60074205454058, "alt_km": 760.5888001966659, "timestamp": "2025-12-26T19:22:39.294048+00:00", "meta": {"OBJECT_NAME": "IRIDIUM 33 DEB", "OBJECT_ID": "1997-051QS", "EPOCH": "2025-12-26T07:59:16.151712", "MEAN_MOTION": 14.38462656, "ECCENTRICITY": 0.01380245, "INCLINATION": 86.3888, "RA_OF_ASC_NODE": 211.721, "ARG_OF_PERICENTER": 213.5543, "MEAN_ANOMALY": 145.6858, "EPHEMERIS_TYPE": 0, "CLASSIFICATION_TYPE": "U", "NORAD_CAT_ID": 35620, "ELEMENT_SET_NO": 999, "REV_AT_EPOCH": 60161, "BSTAR": 0.0045008944, "MEAN_MOTION_DOT": 0.00015388, "MEAN_MOTION_DDOT": 0}, "tle": {"line1": "1 35620U 97051QS  25360.33282583  .00015388  00000+0  45009-2 0  9992", "line2": "2 35620  86.3888 211.7210 0138024 213.5543 145.6858 14.38462656601610"}}, "geometry": {"type": "Point", "coordinates": [-155.60074205454058, -63.00586424514558]}}, {"type": "Feature", "properties": {"norad_id": 35622, "name": "IRIDIUM 33 DEB", "group": "iridium-33-debris", "lat": 1.4828645164513858, "lon": 76.5661978002904, "alt_km": 550.703100067808, "timestamp": "2025-12-26T19:22:39.294058+00:00", "meta": {"OBJECT_NAME": "IRIDIUM 33 DEB", "OBJECT_ID": "1997-051QU", "EPOCH": "2025-12-26T11:23:49.191360", "MEAN_MOTION": 15.06193948, "ECCENTRICITY": 0.00030166, "INCLINATION": 86.1995, "RA_OF_ASC_NODE": 256.8291, "ARG_OF_PERICENTER": 269.9417, "MEAN_ANOMALY": 266.6305, "EPHEMERIS_TYPE": 0, "CLASSIFICATION_TYPE": "U", "NORAD_CAT_ID": 35622, "ELEMENT_SET_NO": 999, "REV_AT_EPOCH": 87566, "BSTAR": 0.0035480553, "MEAN_MOTION_DOT": 0.00052305, "MEAN_MOTION_DDOT": 0}, "tle": {"line1": "1 35622U 97051QU  25360.47487490  .00052305  00000+0  35481-2 0  9996", "line2": "2 35622  86.1995 256.8291 0003016 269.9417 266.6305 15.06193948875665"}}, "geometry": {"type": "Point", "coordinates": [76.5661978002904, 1.4828645164513858]}}, {"type": "Feature", "properties": {"norad_id": 35628, "name": "IRIDIUM 33 DEB", "group": "iridium-33-debris", "lat": -76.6954700906115, "lon": -161.57153055093548, "alt_km": 669.9970825333048, "timestamp": "2025-12-26T19:22:39.294069+00:00", "meta": {"OBJECT_NAME": "IRIDIUM 33 DEB", "OBJECT_ID": "1997-051RA", "EPOCH": "2025-12-26T06:45:19.101312", "MEAN_MOTION": 14.67776082, "ECCENTRICITY": 0.00092374, "INCLINATION": 86.3573, "RA_OF_ASC_NODE": 3.0346, "ARG_OF_PERICENTER": 290.0377, "MEAN_ANOMALY": 69.9843, "EPHEMERIS_TYPE": 0, "CLASSIFICATION_TYPE": "U", "NORAD_CAT_ID": 35628, "ELEMENT_SET_NO": 999, "REV_AT_EPOCH": 86645, "BSTAR": 0.0014358993, "MEAN_MOTION_DOT": 8.215e-05, "MEAN_MOTION_DDOT": 0}, "tle": {"line1": "1 35628U 97051RA  25360.28147108  .00008215  00000+0  14359-2 0  9992", "line2": "2 35628  86.3573   3.0346 0009237 290.0377  69.9843 14.67776082866459"}}, "geometry": {"type": "Point", "coordinates": [-161.57153055093548, -76.6954700906115]}}, {"type": "Feature", "properties": {"norad_id": 35631, "name": "IRIDIUM 33 DEB", "group": "iridium-33-debris", "lat": -24.474684696425786, "lon": -163.42513568526476, "alt_km": 748.528771626181, "timestamp": "2025-12-26T19:22:39.294079+00:00", "meta": {"OBJECT_NAME": "IRIDIUM 33 DEB", "OBJECT_ID": "1997-051RD", "EPOCH": "2025-12-25T01:14:45.811104", "MEAN_MOTION": 14.47344148, "ECCENTRICITY": 0.00192475, "INCLINATION": 86.3663, "RA_OF_ASC_NODE": 15.6731, "ARG_OF_PERICENTER": 81.4254, "MEAN_ANOMALY": 341.8279, "EPHEMERIS_TYPE": 0, "CLASSIFICATION_TYPE": "U", "NORAD_CAT_ID": 35631, "ELEMENT_SET_NO": 999, "REV_AT_EPOCH": 87375, "BSTAR": 0.00038061169, "MEAN_MOTION_DOT": 1.417e-05, "MEAN_MOTION_DDOT": 0}, "tle": {"line1": "1 35631U 97051RD  25359.05191911  .00001417  00000+0  38061-3 0  9994", "line2": "2 35631  86.3663  15.6731 0019247  81.4254 341.8279 14.47344148873756"}}, "geometry": {"type": "Point", "coordinates": [-163.42513568526476, -24.474684696425786]}}, {"type": "Feature", "properties": {"norad_id": 35680, "name": "IRIDIUM 33 DEB", "group": "iridium-33-debris", "lat": -72.9923285401412, "lon": 2.414661888814123, "alt_km": 762.70626885813, "timestamp": "2025-12-26T19:22:39.294089+00:00", "meta": {"OBJECT_NAME": "IRIDIUM 33 DEB", "OBJECT_ID": "1997-051RJ", "EPOCH": "2025-12-26T12:00:19.372608", "MEAN_MOTION": 14.21136563, "ECCENTRICITY": 0.0150773, "INCLINATION": 86.1027, "RA_OF_ASC_NODE": 15.428, "ARG_OF_PERICENTER": 234.4546, "MEAN_ANOMALY": 280.2175, "EPHEMERIS_TYPE": 0, "CLASSIFICATION_TYPE": "U", "NORAD_CAT_ID": 35680, "ELEMENT_SET_NO": 999, "REV_AT_EPOCH": 60896, "BSTAR": 0.0033475108, "MEAN_MOTION_DOT": 8.18e-05, "MEAN_MOTION_DDOT": 0}, "tle": {"line1": "1 35680U 97051RJ  25360.50022422  .00008180  00000+0  33475-2 0  9997", "line2": "2 35680  86.1027  15.4280 0150773 234.4546 280.2175 14.21136563608965"}}, "geometry": {"type": "Point", "coordinates": [2.414661888814123, -72.9923285401412]}}, {"type": "Feature", "properties": {"norad_id": 35744, "name": "IRIDIUM 33 DEB", "group": "iridium-33-debris", "lat": -32.67780980985964, "lon": -43.280414513654456, "alt_km": 678.9190062076059, "timestamp": "2025-12-26T19:22:39.294100+00:00", "meta": {"OBJECT_NAME": "IRIDIUM 33 DEB", "OBJECT_ID": "1997-051RX", "EPOCH": "2025-12-24T15:17:19.932000", "MEAN_MOTION": 14.71145759, "ECCENTRICITY": 0.00219113, "INCLINATION": 86.3301, "RA_OF_ASC_NODE": 320.0594, "ARG_OF_PERICENTER": 150.6894, "MEAN_ANOMALY": 209.5557, "EPHEMERIS_TYPE": 0, "CLASSIFICATION_TYPE": "U", "NORAD_CAT_ID": 35744, "ELEMENT_SET_NO": 999, "REV_AT_EPOCH": 87506, "BSTAR": 0.0011850025, "MEAN_MOTION_DOT": 7.344e-05, "MEAN_MOTION_DDOT": 0}, "tle": {"line1": "1 35744U 97051RX  25358.63703625  .00007344  00000+0  11850-2 0  9994", "line2": "2 35744  86.3301 320.0594 0021911 150.6894 209.5557 14.71145759875069"}}, "geometry": {"type": "Point", "coordinates": [-43.280414513654456, -32.67780980985964]}}]}